start=new Date('2022-04-25T00:00:00.000Z').valueOf();
sats=[{"EPOCH":"2022-04-24T17:22:33.398688","MEAN_ELEMENT_THEORY":"SGP4","OBJECT_NAME":"STARLINK-2032","MEAN_MOTION_DOT":"0.00000006","APOAPSIS":"548.443","CLASSIFICATION_TYPE":"U","MEAN_ANOMALY":"298.4337","COUNTRY_CODE":"US","INCLINATION":"53.0533","NORAD_CAT_ID":"47649","ARG_OF_PERICENTER":"61.6828","GP_ID":"201940657","BSTAR":"0.00001932200000","REF_FRAME":"TEME","CENTER_NAME":"EARTH","RCS_SIZE":"LARGE","PERIAPSIS":"546.017","MEAN_MOTION_DDOT":"0.0000000000000","ELEMENT_SET_NO":"999","EPHEMERIS_TYPE":"0","LAUNCH_DATE":"2021-02-16","DECAY_DATE":null,"REV_AT_EPOCH":"6648","TLE_LINE2":"2 47649  53.0533 283.6517 0001752  61.6828 298.4337 15.06394648 66485","OBJECT_ID":"2021-012AF","ECCENTRICITY":"0.00017520","MEAN_MOTION":"15.06394648","SITE":"AFETR","PERIOD":"95.592","TIME_SYSTEM":"UTC","RA_OF_ASC_NODE":"283.6517","FILE":"3414307","TLE_LINE1":"1 47649U 21012AF  22114.72399767  .00000006  00000-0  19322-4 0  9993","OBJECT_TYPE":"PAYLOAD","SEMIMAJOR_AXIS":"6925.365"},{"RCS_SIZE":"LARGE","CENTER_NAME":"EARTH","REF_FRAME":"TEME","BSTAR":"0.00007380700000","GP_ID":"201934336","ARG_OF_PERICENTER":"66.3679","NORAD_CAT_ID":"47650","MEAN_MOTION_DDOT":"0.0000000000000","ELEMENT_SET_NO":"999","PERIAPSIS":"546.185","APOAPSIS":"548.246","MEAN_MOTION_DOT":"0.00000818","OBJECT_NAME":"STARLINK-2033","MEAN_ELEMENT_THEORY":"SGP4","EPOCH":"2022-04-24T10:39:09.802944","INCLINATION":"53.0552","COUNTRY_CODE":"US","MEAN_ANOMALY":"293.7466","CLASSIFICATION_TYPE":"U","TIME_SYSTEM":"UTC","PERIOD":"95.592","SEMIMAJOR_AXIS":"6925.351","OBJECT_TYPE":"PAYLOAD","TLE_LINE1":"1 47650U 21012AG  22114.44386346  .00000818  00000-0  73807-4 0  9992","FILE":"3414186","RA_OF_ASC_NODE":"284.9094","OBJECT_ID":"2021-012AG","TLE_LINE2":"2 47650  53.0552 284.9094 0001488  66.3679 293.7466 15.06399216 66942","REV_AT_EPOCH":"6694","DECAY_DATE":null,"EPHEMERIS_TYPE":"0","LAUNCH_DATE":"2021-02-16","SITE":"AFETR","MEAN_MOTION":"15.06399216","ECCENTRICITY":"0.00014880"},{"ARG_OF_PERICENTER":"70.7555","NORAD_CAT_ID":"47651","GP_ID":"201934586","BSTAR":"0.00026535000000","REF_FRAME":"TEME","CENTER_NAME":"EARTH","RCS_SIZE":"LARGE","PERIAPSIS":"546.127","ELEMENT_SET_NO":"999","MEAN_MOTION_DDOT":"0.0000000000000","MEAN_ELEMENT_THEORY":"SGP4","EPOCH":"2022-04-24T13:03:45.740160","OBJECT_NAME":"STARLINK-2035","MEAN_MOTION_DOT":"0.00003674","APOAPSIS":"548.272","CLASSIFICATION_TYPE":"U","COUNTRY_CODE":"US","MEAN_ANOMALY":"289.3601","INCLINATION":"53.0551","PERIOD":"95.592","TIME_SYSTEM":"UTC","RA_OF_ASC_NODE":"304.4637","TLE_LINE1":"1 47651U 21012AH  22114.54427940  .00003674  00000-0  26535-3 0  9998","FILE":"3414186","OBJECT_TYPE":"PAYLOAD","SEMIMAJOR_AXIS":"6925.335","EPHEMERIS_TYPE":"0","LAUNCH_DATE":"2021-02-16","REV_AT_EPOCH":"6669","DECAY_DATE":null,"OBJECT_ID":"2021-012AH","TLE_LINE2":"2 47651  53.0551 304.4637 0001549  70.7555 289.3601 15.06404524 66696","ECCENTRICITY":"0.00015490","SITE":"AFETR","MEAN_MOTION":"15.06404524"},{"PERIAPSIS":"546.182","ELEMENT_SET_NO":"999","MEAN_MOTION_DDOT":"0.0000000000000","ARG_OF_PERICENTER":"57.7844","NORAD_CAT_ID":"47652","BSTAR":"0.00011586000000","GP_ID":"201935837","REF_FRAME":"TEME","RCS_SIZE":"LARGE","CENTER_NAME":"EARTH","CLASSIFICATION_TYPE":"U","COUNTRY_CODE":"US","MEAN_ANOMALY":"302.3290","INCLINATION":"53.0543","EPOCH":"2022-04-24T13:42:16.817472","MEAN_ELEMENT_THEORY":"SGP4","OBJECT_NAME":"STARLINK-2036","MEAN_MOTION_DOT":"0.00001445","APOAPSIS":"548.251","RA_OF_ASC_NODE":"304.3418","FILE":"3414186","TLE_LINE1":"1 47652U 21012AJ  22114.57102798  .00001445  00000-0  11586-3 0  9997","OBJECT_TYPE":"PAYLOAD","SEMIMAJOR_AXIS":"6925.352","PERIOD":"95.592","TIME_SYSTEM":"UTC","ECCENTRICITY":"0.00014940","MEAN_MOTION":"15.06398937","SITE":"AFETR","LAUNCH_DATE":"2021-02-16","EPHEMERIS_TYPE":"0","DECAY_DATE":null,"REV_AT_EPOCH":"6669","TLE_LINE2":"2 47652  53.0543 304.3418 0001494  57.7844 302.3290 15.06398937 66699","OBJECT_ID":"2021-012AJ"},{"CLASSIFICATION_TYPE":"U","MEAN_ANOMALY":"304.0163","COUNTRY_CODE":"US","INCLINATION":"53.0557","EPOCH":"2022-04-24T10:23:14.087616","MEAN_ELEMENT_THEORY":"SGP4","OBJECT_NAME":"STARLINK-2037","MEAN_MOTION_DOT":"0.00000113","APOAPSIS":"548.332","PERIAPSIS":"546.100","MEAN_MOTION_DDOT":"0.0000000000000","ELEMENT_SET_NO":"999","ARG_OF_PERICENTER":"56.0979","NORAD_CAT_ID":"47653","BSTAR":"0.00002649700000","GP_ID":"201935588","REF_FRAME":"TEME","CENTER_NAME":"EARTH","RCS_SIZE":"LARGE","ECCENTRICITY":"0.00016110","MEAN_MOTION":"15.06399251","SITE":"AFETR","EPHEMERIS_TYPE":"0","LAUNCH_DATE":"2021-02-16","DECAY_DATE":null,"REV_AT_EPOCH":"6694","TLE_LINE2":"2 47653  53.0557 284.9441 0001611  56.0979 304.0163 15.06399251 66942","OBJECT_ID":"2021-012AK","RA_OF_ASC_NODE":"284.9441","FILE":"3414186","TLE_LINE1":"1 47653U 21012AK  22114.43280194  .00000113  00000-0  26497-4 0  9999","OBJECT_TYPE":"PAYLOAD","SEMIMAJOR_AXIS":"6925.351","PERIOD":"95.592","TIME_SYSTEM":"UTC"},{"COUNTRY_CODE":"US","MEAN_ANOMALY":"292.5741","INCLINATION":"53.0554","CLASSIFICATION_TYPE":"U","MEAN_MOTION_DOT":"0.00003139","APOAPSIS":"548.382","MEAN_ELEMENT_THEORY":"SGP4","EPOCH":"2022-04-24T05:49:53.017536","OBJECT_NAME":"STARLINK-2038","PERIAPSIS":"546.033","ELEMENT_SET_NO":"999","MEAN_MOTION_DDOT":"0.0000000000000","REF_FRAME":"TEME","RCS_SIZE":"LARGE","CENTER_NAME":"EARTH","ARG_OF_PERICENTER":"67.5427","NORAD_CAT_ID":"47654","BSTAR":"0.00022952000000","GP_ID":"201934836","MEAN_MOTION":"15.06401932","SITE":"AFETR","ECCENTRICITY":"0.00016960","TLE_LINE2":"2 47654  53.0554 305.8038 0001696  67.5427 292.5741 15.06401932 66643","OBJECT_ID":"2021-012AL","LAUNCH_DATE":"2021-02-16","EPHEMERIS_TYPE":"0","DECAY_DATE":null,"REV_AT_EPOCH":"6664","OBJECT_TYPE":"PAYLOAD","SEMIMAJOR_AXIS":"6925.343","RA_OF_ASC_NODE":"305.8038","FILE":"3414186","TLE_LINE1":"1 47654U 21012AL  22114.24297474  .00003139  00000-0  22952-3 0  9990","TIME_SYSTEM":"UTC","PERIOD":"95.592"},{"MEAN_ANOMALY":"293.2850","COUNTRY_CODE":"US","INCLINATION":"53.0552","CLASSIFICATION_TYPE":"U","MEAN_MOTION_DOT":"0.00002115","APOAPSIS":"548.161","EPOCH":"2022-04-24T13:36:58.413600","MEAN_ELEMENT_THEORY":"SGP4","OBJECT_NAME":"STARLINK-2039","PERIAPSIS":"546.289","ELEMENT_SET_NO":"999","MEAN_MOTION_DDOT":"0.0000000000000","REF_FRAME":"TEME","RCS_SIZE":"LARGE","CENTER_NAME":"EARTH","ARG_OF_PERICENTER":"66.8281","NORAD_CAT_ID":"47655","GP_ID":"201935086","BSTAR":"0.00016082000000","MEAN_MOTION":"15.06396264","SITE":"AFETR","ECCENTRICITY":"0.00013520","TLE_LINE2":"2 47655  53.0552 304.3540 0001352  66.8281 293.2850 15.06396264 66698","OBJECT_ID":"2021-012AM","LAUNCH_DATE":"2021-02-16","EPHEMERIS_TYPE":"0","DECAY_DATE":null,"REV_AT_EPOCH":"6669","OBJECT_TYPE":"PAYLOAD","SEMIMAJOR_AXIS":"6925.360","RA_OF_ASC_NODE":"304.3540","FILE":"3414186","TLE_LINE1":"1 47655U 21012AM  22114.56734275  .00002115  00000-0  16082-3 0  9991","TIME_SYSTEM":"UTC","PERIOD":"95.592"},{"INCLINATION":"53.0554","COUNTRY_CODE":"US","MEAN_ANOMALY":"317.0320","CLASSIFICATION_TYPE":"U","APOAPSIS":"548.663","MEAN_MOTION_DOT":"-0.00000080","OBJECT_NAME":"STARLINK-2040","EPOCH":"2022-04-24T17:11:56.142528","MEAN_ELEMENT_THEORY":"SGP4","MEAN_MOTION_DDOT":"0.0000000000000","ELEMENT_SET_NO":"999","PERIAPSIS":"545.811","CENTER_NAME":"EARTH","RCS_SIZE":"LARGE","REF_FRAME":"TEME","BSTAR":"0.00001354900000","GP_ID":"201940660","NORAD_CAT_ID":"47656","ARG_OF_PERICENTER":"43.0830","MEAN_MOTION":"15.06392363","SITE":"AFETR","ECCENTRICITY":"0.00020590","TLE_LINE2":"2 47656  53.0554 283.6823 0002059  43.0830 317.0320 15.06392363 66475","OBJECT_ID":"2021-012AN","DECAY_DATE":null,"REV_AT_EPOCH":"6647","LAUNCH_DATE":"2021-02-16","EPHEMERIS_TYPE":"0","SEMIMAJOR_AXIS":"6925.372","OBJECT_TYPE":"PAYLOAD","FILE":"3414281","TLE_LINE1":"1 47656U 21012AN  22114.71662202 -.00000080  00000-0  13549-4 0  9995","RA_OF_ASC_NODE":"283.6823","TIME_SYSTEM":"UTC","PERIOD":"95.593"},{"REF_FRAME":"TEME","CENTER_NAME":"EARTH","RCS_SIZE":"LARGE","NORAD_CAT_ID":"47657","ARG_OF_PERICENTER":"70.9623","GP_ID":"201942547","BSTAR":"0.00008896500000","PERIAPSIS":"546.184","ELEMENT_SET_NO":"999","MEAN_MOTION_DDOT":"0.0000000000000","MEAN_MOTION_DOT":"0.00001044","APOAPSIS":"548.259","EPOCH":"2022-04-24T18:55:25.959360","MEAN_ELEMENT_THEORY":"SGP4","OBJECT_NAME":"STARLINK-2041","COUNTRY_CODE":"US","MEAN_ANOMALY":"289.1528","INCLINATION":"53.0551","CLASSIFICATION_TYPE":"U","TIME_SYSTEM":"UTC","PERIOD":"95.592","OBJECT_TYPE":"PAYLOAD","SEMIMAJOR_AXIS":"6925.357","RA_OF_ASC_NODE":"303.3682","TLE_LINE1":"1 47657U 21012AP  22114.78849490  .00001044  00000-0  88965-4 0  9993","FILE":"3414348","OBJECT_ID":"2021-012AP","TLE_LINE2":"2 47657  53.0551 303.3682 0001498  70.9623 289.1528 15.06397397 66214","LAUNCH_DATE":"2021-02-16","EPHEMERIS_TYPE":"0","REV_AT_EPOCH":"6621","DECAY_DATE":null,"SITE":"AFETR","MEAN_MOTION":"15.06397397","ECCENTRICITY":"0.00014980"},{"MEAN_ANOMALY":"278.8559","COUNTRY_CODE":"US","INCLINATION":"53.0542","CLASSIFICATION_TYPE":"U","MEAN_MOTION_DOT":"0.00001338","APOAPSIS":"548.134","MEAN_ELEMENT_THEORY":"SGP4","EPOCH":"2022-04-24T12:22:39.289728","OBJECT_NAME":"STARLINK-2042","PERIAPSIS":"546.276","ELEMENT_SET_NO":"999","MEAN_MOTION_DDOT":"0.0000000000000","REF_FRAME":"TEME","CENTER_NAME":"EARTH","RCS_SIZE":"LARGE","NORAD_CAT_ID":"47658","ARG_OF_PERICENTER":"81.2582","GP_ID":"201934337","BSTAR":"0.00010872000000","SITE":"AFETR","MEAN_MOTION":"15.06402830","ECCENTRICITY":"0.00013420","OBJECT_ID":"2021-012AQ","TLE_LINE2":"2 47658  53.0542 304.5849 0001342  81.2582 278.8559 15.06402830 66702","LAUNCH_DATE":"2021-02-16","EPHEMERIS_TYPE":"0","REV_AT_EPOCH":"6670","DECAY_DATE":null,"OBJECT_TYPE":"PAYLOAD","SEMIMAJOR_AXIS":"6925.340","RA_OF_ASC_NODE":"304.5849","TLE_LINE1":"1 47658U 21012AQ  22114.51573252  .00001338  00000-0  10872-3 0  9992","FILE":"3414186","TIME_SYSTEM":"UTC","PERIOD":"95.592"}];
